{"type": "FeatureCollection", "features": [ {"type": "Feature", "properties": {"norad_id": 54031, "name": "COSMOS 2559 (707K)", "group": "gnss", "lat": -42.78793430335522, "lon": -65.71939695706344, "alt_km": 19149.589539583405, "timestamp": "2025-12-26T15:29:39.682837+00:00", "meta": {"OBJECT_NAME": "COSMOS 2559 (707K)", "OBJECT_ID": "2022-130A", "EPOCH": "2025-12-25T07:14:23.309088", "MEAN_MOTION": 2.13101233, "ECCENTRICITY": 0.0011493, "INCLINATION": 64.3751, "RA_OF_ASC_NODE": 320.6993, "ARG_OF_PERICENTER": 191.6749, "MEAN_ANOMALY": 168.3019, "EPHEMERIS_TYPE": 0, "CLASSIFICATION_TYPE": "U", "NORAD_CAT_ID": 54031, "ELEMENT_SET_NO": 999, "REV_AT_EPOCH": 2498, "BSTAR": 0, "MEAN_MOTION_DOT": -3.5e-07, "MEAN_MOTION_DDOT": 0}, "tle": {"line1": "1 54031U 22130A   25359.30165867 -.00000035  00000+0  00000+0 0  9998", "line2": "2 54031  64.3751 320.6993 0011493 191.6749 168.3019  2.13101233 24985"}}, "geometry": {"type": "Point", "coordinates": [-65.71939695706344, -42.78793430335522]}}, {"type": "Feature", "properties": {"norad_id": 54377, "name": "COSMOS 2564 (761)", "group": "gnss", "lat": 58.48311942357539, "lon": -111.17971013396075, "alt_km": 19138.325179634943, "timestamp": "2025-12-26T15:29:39.682854+00:00", "meta": {"OBJECT_NAME": "COSMOS 2564 (761)", "OBJECT_ID": "2022-161A", "EPOCH": "2025-12-25T03:29:54.558240", "MEAN_MOTION": 2.13102011, "ECCENTRICITY": 0.0008544, "INCLINATION": 64.739, "RA_OF_ASC_NODE": 198.4867, "ARG_OF_PERICENTER": 203.5994, "MEAN_ANOMALY": 156.4178, "EPHEMERIS_TYPE": 0, "CLASSIFICATION_TYPE": "U", "NORAD_CAT_ID": 54377, "ELEMENT_SET_NO": 999, "REV_AT_EPOCH": 2392, "BSTAR": 0, "MEAN_MOTION_DOT": 1.03e-06, "MEAN_MOTION_DDOT": 0}, "tle": {"line1": "1 54377U 22161A   25359.14577035  .00000103  00000+0  00000+0 0  9996", "line2": "2 54377  64.7390 198.4867 0008544 203.5994 156.4178  2.13102011 23922"}}, "geometry": {"type": "Point", "coordinates": [-111.17971013396075, 58.48311942357539]}}, {"type": "Feature", "properties": {"norad_id": 55268, "name": "GPS BIII-6  (PRN 28)", "group": "gnss", "lat": 29.11389998165212, "lon": -47.57864198832108, "alt_km": 20187.75550957063, "timestamp": "2025-12-26T15:29:39.682871+00:00", "meta": {"OBJECT_NAME": "GPS BIII-6  (PRN 28)", "OBJECT_ID": "2023-009A", "EPOCH": "2025-12-22T10:59:58.065216", "MEAN_MOTION": 2.00554901, "ECCENTRICITY": 0.00037047, "INCLINATION": 55.1065, "RA_OF_ASC_NODE": 155.4638, "ARG_OF_PERICENTER": 355.7912, "MEAN_ANOMALY": 4.4255, "EPHEMERIS_TYPE": 0, "CLASSIFICATION_TYPE": "U", "NORAD_CAT_ID": 55268, "ELEMENT_SET_NO": 999, "REV_AT_EPOCH": 2170, "BSTAR": 0, "MEAN_MOTION_DOT": 7.4e-07, "MEAN_MOTION_DDOT": 0}, "tle": {"line1": "1 55268U 23009A   25356.45831094  .00000074  00000+0  00000+0 0  9994", "line2": "2 55268  55.1065 155.4638 0003704 355.7912   4.4255  2.00554901 21704"}}, "geometry": {"type": "Point", "coordinates": [-47.57864198832108, 29.11389998165212]}}, {"type": "Feature", "properties": {"norad_id": 56564, "name": "BEIDOU-3 G4 (C62)", "group": "gnss", "lat": -0.04858579729242979, "lon": 127.82368671927617, "alt_km": 35778.900810166095, "timestamp": "2025-12-26T15:29:39.682892+00:00", "meta": {"OBJECT_NAME": "BEIDOU-3 G4 (C62)", "OBJECT_ID": "2023-066A", "EPOCH": "2025-12-26T05:15:38.835072", "MEAN_MOTION": 1.00270689, "ECCENTRICITY": 0.00025334, "INCLINATION": 0.787, "RA_OF_ASC_NODE": 303.1048, "ARG_OF_PERICENTER": 229.9662, "MEAN_ANOMALY": 160.8597, "EPHEMERIS_TYPE": 0, "CLASSIFICATION_TYPE": "U", "NORAD_CAT_ID": 56564, "ELEMENT_SET_NO": 999, "REV_AT_EPOCH": 966, "BSTAR": 0, "MEAN_MOTION_DOT": -8.9e-07, "MEAN_MOTION_DDOT": 0}, "tle": {"line1": "1 56564U 23066A   25360.21919948 -.00000089  00000+0  00000+0 0  9998", "line2": "2 56564   0.7870 303.1048 0002533 229.9662 160.8597  1.00270689  9668"}}, "geometry": {"type": "Point", "coordinates": [127.82368671927617, -0.04858579729242979]}}, {"type": "Feature", "properties": {"norad_id": 56759, "name": "NVS-01 (IRNSS-1J)", "group": "gnss", "lat": -1.122402238431841, "lon": 97.31648907415656, "alt_km": 35824.15841235703, "timestamp": "2025-12-26T15:29:39.682913+00:00", "meta": {"OBJECT_NAME": "NVS-01 (IRNSS-1J)", "OBJECT_ID": "2023-076A", "EPOCH": "2025-12-26T05:05:11.741280", "MEAN_MOTION": 1.00270331, "ECCENTRICITY": 0.0008948, "INCLINATION": 2.5869, "RA_OF_ASC_NODE": 251.1193, "ARG_OF_PERICENTER": 17.6162, "MEAN_ANOMALY": 32.0851, "EPHEMERIS_TYPE": 0, "CLASSIFICATION_TYPE": "U", "NORAD_CAT_ID": 56759, "ELEMENT_SET_NO": 999, "REV_AT_EPOCH": 938, "BSTAR": 0, "MEAN_MOTION_DOT": -3.13e-06, "MEAN_MOTION_DDOT": 0}, "tle": {"line1": "1 56759U 23076A   25360.21194145 -.00000313  00000+0  00000+0 0  9999", "line2": "2 56759   2.5869 251.1193 0008948  17.6162  32.0851  1.00270331  9384"}}, "geometry": {"type": "Point", "coordinates": [97.31648907415656, -1.122402238431841]}}, {"type": "Feature", "properties": {"norad_id": 57517, "name": "COSMOS 2569 (703K)", "group": "gnss", "lat": 52.11451194873432, "lon": 114.85131059526839, "alt_km": 19143.05313759801, "timestamp": "2025-12-26T15:29:39.682931+00:00", "meta": {"OBJECT_NAME": "COSMOS 2569 (703K)", "OBJECT_ID": "2023-114A", "EPOCH": "2025-12-26T02:20:34.905408", "MEAN_MOTION": 2.13103952, "ECCENTRICITY": 0.00110098, "INCLINATION": 65.2009, "RA_OF_ASC_NODE": 78.4621, "ARG_OF_PERICENTER": 287.2132, "MEAN_ANOMALY": 72.7147, "EPHEMERIS_TYPE": 0, "CLASSIFICATION_TYPE": "U", "NORAD_CAT_ID": 57517, "ELEMENT_SET_NO": 999, "REV_AT_EPOCH": 1857, "BSTAR": 0, "MEAN_MOTION_DOT": -5e-08, "MEAN_MOTION_DDOT": 0}, "tle": {"line1": "1 57517U 23114A   25360.09762622 -.00000005  00000+0  00000+0 0  9990", "line2": "2 57517  65.2009  78.4621 0011009 287.2132  72.7147  2.13103952 18578"}}, "geometry": {"type": "Point", "coordinates": [114.85131059526839, 52.11451194873432]}}, {"type": "Feature", "properties": {"norad_id": 58654, "name": "BEIDOU-3 M28 (C50)", "group": "gnss", "lat": 12.056015180994445, "lon": -120.25940651259457, "alt_km": 21529.72982976296, "timestamp": "2025-12-26T15:29:39.682948+00:00", "meta": {"OBJECT_NAME": "BEIDOU-3 M28 (C50)", "OBJECT_ID": "2023-207A", "EPOCH": "2025-12-24T18:54:51.717312", "MEAN_MOTION": 1.86229668, "ECCENTRICITY": 0.0002918, "INCLINATION": 55.5946, "RA_OF_ASC_NODE": 68.1934, "ARG_OF_PERICENTER": 275.8619, "MEAN_ANOMALY": 84.1589, "EPHEMERIS_TYPE": 0, "CLASSIFICATION_TYPE": "U", "NORAD_CAT_ID": 58654, "ELEMENT_SET_NO": 999, "REV_AT_EPOCH": 1359, "BSTAR": 0, "MEAN_MOTION_DOT": -2.7e-07, "MEAN_MOTION_DDOT": 0}, "tle": {"line1": "1 58654U 23207A   25358.78809858 -.00000027  00000+0  00000+0 0  9996", "line2": "2 58654  55.5946  68.1934 0002918 275.8619  84.1589  1.86229668 13594"}}, "geometry": {"type": "Point", "coordinates": [-120.25940651259457, 12.056015180994445]}}, {"type": "Feature", "properties": {"norad_id": 58655, "name": "BEIDOU-3 M26 (C48)", "group": "gnss", "lat": -44.96374675335987, "lon": 25.012320382958908, "alt_km": 21524.003738238203, "timestamp": "2025-12-26T15:29:39.682969+00:00", "meta": {"OBJECT_NAME": "BEIDOU-3 M26 (C48)", "OBJECT_ID": "2023-207B", "EPOCH": "2025-12-26T04:42:57.397824", "MEAN_MOTION": 1.86231148, "ECCENTRICITY": 0.00042709, "INCLINATION": 55.5979, "RA_OF_ASC_NODE": 68.1319, "ARG_OF_PERICENTER": 261.8376, "MEAN_ANOMALY": 98.1658, "EPHEMERIS_TYPE": 0, "CLASSIFICATION_TYPE": "U", "NORAD_CAT_ID": 58655, "ELEMENT_SET_NO": 999, "REV_AT_EPOCH": 1360, "BSTAR": 0, "MEAN_MOTION_DOT": -3.2e-07, "MEAN_MOTION_DDOT": 0}, "tle": {"line1": "1 58655U 23207B   25360.19649766 -.00000032  00000+0  00000+0 0  9991", "line2": "2 58655  55.5979  68.1319 0004270 261.8376  98.1658  1.86231148 13606"}}, "geometry": {"type": "Point", "coordinates": [25.012320382958908, -44.96374675335987]}}, {"type": "Feature", "properties": {"norad_id": 59598, "name": "GSAT0225 (GALILEO 29)", "group": "gnss", "lat": 6.103921805419622, "lon": -78.38329374792674, "alt_km": 23215.442993249148, "timestamp": "2025-12-26T15:29:39.682987+00:00", "meta": {"OBJECT_NAME": "GSAT0225 (GALILEO 29)", "OBJECT_ID": "2024-079A", "EPOCH": "2025-12-25T18:42:53.226144", "MEAN_MOTION": 1.70474814, "ECCENTRICITY": 0.00021774, "INCLINATION": 55.0084, "RA_OF_ASC_NODE": 105.9312, "ARG_OF_PERICENTER": 191.4017, "MEAN_ANOMALY": 169.7242, "EPHEMERIS_TYPE": 0, "CLASSIFICATION_TYPE": "U", "NORAD_CAT_ID": 59598, "ELEMENT_SET_NO": 999, "REV_AT_EPOCH": 1036, "BSTAR": 0, "MEAN_MOTION_DOT": 1.7e-07, "MEAN_MOTION_DDOT": 0}, "tle": {"line1": "1 59598U 24079A   25359.77978271  .00000017  00000+0  00000+0 0  9996", "line2": "2 59598  55.0084 105.9312 0002177 191.4017 169.7242  1.70474814 10368"}}, "geometry": {"type": "Point", "coordinates": [-78.38329374792674, 6.103921805419622]}}, {"type": "Feature", "properties": {"norad_id": 59600, "name": "GSAT0227 (GALILEO 30)", "group": "gnss", "lat": 45.17108870472719, "lon": 150.63560484200755, "alt_km": 23212.159495589352, "timestamp": "2025-12-26T15:29:39.683004+00:00", "meta": {"OBJECT_NAME": "GSAT0227 (GALILEO 30)", "OBJECT_ID": "2024-079C", "EPOCH": "2025-12-21T20:31:35.455872", "MEAN_MOTION": 1.70474868, "ECCENTRICITY": 0.00028355, "INCLINATION": 55.0019, "RA_OF_ASC_NODE": 106.0394, "ARG_OF_PERICENTER": 117.3615, "MEAN_ANOMALY": 242.6419, "EPHEMERIS_TYPE": 0, "CLASSIFICATION_TYPE": "U", "NORAD_CAT_ID": 59600, "ELEMENT_SET_NO": 999, "REV_AT_EPOCH": 1034, "BSTAR": 0, "MEAN_MOTION_DOT": 4e-08, "MEAN_MOTION_DDOT": 0}, "tle": {"line1": "1 59600U 24079C   25355.85527148  .00000004  00000+0  00000+0 0  9994", "line2": "2 59600  55.0019 106.0394 0002835 117.3615 242.6419  1.70474868 10348"}}, "geometry": {"type": "Point", "coordinates": [150.63560484200755, 45.17108870472719]}}]}